{
  "type": "FeatureCollection",
  "features": [
    {
      "type": "Feature",
      "properties": {
        "norad_id": 66562,
        "name": "STARLINK-35579",
        "group": "last-30-days",
        "lat": 42.10626635522746,
        "lon": 160.56051207502227,
        "alt_km": 408.34903814548943,
        "timestamp": "2025-12-18T23:35:47.780271+00:00",
        "meta_object_name": "STARLINK-35579",
        "meta_object_id": "2025-268F",
        "meta_epoch": "2025-12-18T13:58:48.163296",
        "meta_mean_motion": 15.50658266,
        "meta_eccentricity": 5.904e-05,
        "meta_inclination": 43.0006,
        "meta_ra_of_asc_node": 87.0113,
        "meta_arg_of_pericenter": 271.8395,
        "meta_mean_anomaly": 88.2398,
        "meta_ephemeris_type": 0,
        "meta_classification_type": "U",
        "meta_norad_cat_id": 66562,
        "meta_element_set_no": 999,
        "meta_rev_at_epoch": 553,
        "meta_bstar": 0.0010362804,
        "meta_mean_motion_dot": 0.000611,
        "meta_mean_motion_ddot": 0,
        "tle_line1": "1 66562U 25268F   25352.58250189  .00061100  00000+0  10363-2 0  9995",
        "tle_line2": "2 66562  43.0006  87.0113 0000590 271.8395  88.2398 15.50658266  5534"
      },
      "geometry": {
        "type": "Point",
        "coordinates": [
          160.56051207502227,
          42.10626635522746
        ]
      }
    },
    {
      "type": "Feature",
      "properties": {
        "norad_id": 66563,
        "name": "STARLINK-35437",
        "group": "last-30-days",
        "lat": 42.628939438440106,
        "lon": 165.69297616508769,
        "alt_km": 408.9295559538432,
        "timestamp": "2025-12-18T23:35:47.780281+00:00",
        "meta_object_name": "STARLINK-35437",
        "meta_object_id": "2025-268G",
        "meta_epoch": "2025-12-18T13:57:47.901024",
        "meta_mean_motion": 15.50617028,
        "meta_eccentricity": 0.0001369,
        "meta_inclination": 43.0004,
        "meta_ra_of_asc_node": 87.0056,
        "meta_arg_of_pericenter": 262.6429,
        "meta_mean_anomaly": 97.4275,
        "meta_ephemeris_type": 0,
        "meta_classification_type": "U",
        "meta_norad_cat_id": 66563,
        "meta_element_set_no": 999,
        "meta_rev_at_epoch": 553,
        "meta_bstar": 0.0010541152,
        "meta_mean_motion_dot": 0.00062074,
        "meta_mean_motion_ddot": 0,
        "tle_line1": "1 66563U 25268G   25352.58180441  .00062074  00000+0  10541-2 0  9998",
        "tle_line2": "2 66563  43.0004  87.0056 0001369 262.6429  97.4275 15.50617028  5537"
      },
      "geometry": {
        "type": "Point",
        "coordinates": [
          165.69297616508769,
          42.628939438440106
        ]
      }
    },
    {
      "type": "Feature",
      "properties": {
        "norad_id": 66564,
        "name": "STARLINK-35358",
        "group": "last-30-days",
        "lat": 42.80848459050014,
        "lon": 168.3314607770829,
        "alt_km": 409.11552297960134,
        "timestamp": "2025-12-18T23:35:47.780291+00:00",
        "meta_object_name": "STARLINK-35358",
        "meta_object_id": "2025-268H",
        "meta_epoch": "2025-12-18T13:57:18.142272",
        "meta_mean_motion": 15.50627894,
        "meta_eccentricity": 0.0001797,
        "meta_inclination": 43.0032,
        "meta_ra_of_asc_node": 87.0039,
        "meta_arg_of_pericenter": 268.3063,
        "meta_mean_anomaly": 91.7591,
        "meta_ephemeris_type": 0,
        "meta_classification_type": "U",
        "meta_norad_cat_id": 66564,
        "meta_element_set_no": 999,
        "meta_rev_at_epoch": 553,
        "meta_bstar": 0.0013394126,
        "meta_mean_motion_dot": 0.00079173,
        "meta_mean_motion_ddot": 0,
        "tle_line1": "1 66564U 25268H   25352.58145998  .00079173  00000+0  13394-2 0  9994",
        "tle_line2": "2 66564  43.0032  87.0039 0001797 268.3063  91.7591 15.50627894  5532"
      },
      "geometry": {
        "type": "Point",
        "coordinates": [
          168.3314607770829,
          42.80848459050014
        ]
      }
    },
    {
      "type": "Feature",
      "properties": {
        "norad_id": 66565,
        "name": "STARLINK-35893",
        "group": "last-30-days",
        "lat": 42.920557318466216,
        "lon": 170.92009538494622,
        "alt_km": 408.84054646242475,
        "timestamp": "2025-12-18T23:35:47.780301+00:00",
        "meta_object_name": "STARLINK-35893",
        "meta_object_id": "2025-268J",
        "meta_epoch": "2025-12-18T13:56:48.664320",
        "meta_mean_motion": 15.50624497,
        "meta_eccentricity": 0.0001387,
        "meta_inclination": 43.0015,
        "meta_ra_of_asc_node": 86.9997,
        "meta_arg_of_pericenter": 260.7796,
        "meta_mean_anomaly": 99.2908,
        "meta_ephemeris_type": 0,
        "meta_classification_type": "U",
        "meta_norad_cat_id": 66565,
        "meta_element_set_no": 999,
        "meta_rev_at_epoch": 553,
        "meta_bstar": 0.0012916172,
        "meta_mean_motion_dot": 0.00076297,
        "meta_mean_motion_ddot": 0,
        "tle_line1": "1 66565U 25268J   25352.58111880  .00076297  00000+0  12916-2 0  9991",
        "tle_line2": "2 66565  43.0015  86.9997 0001387 260.7796  99.2908 15.50624497  5530"
      },
      "geometry": {
        "type": "Point",
        "coordinates": [
          170.92009538494622,
          42.920557318466216
        ]
      }
    },
    {
      "type": "Feature",
      "properties": {
        "norad_id": 66566,
        "name": "STARLINK-35871",
        "group": "last-30-days",
        "lat": 42.9736748478868,
        "lon": 173.55057300388032,
        "alt_km": 407.7087352822855,
        "timestamp": "2025-12-18T23:35:47.780311+00:00",
        "meta_object_name": "STARLINK-35871",
        "meta_object_id": "2025-268K",
        "meta_epoch": "2025-12-18T13:56:19.693536",
        "meta_mean_motion": 15.50645839,
        "meta_eccentricity": 4.762e-05,
        "meta_inclination": 42.9993,
        "meta_ra_of_asc_node": 86.9961,
        "meta_arg_of_pericenter": 20.896,
        "meta_mean_anomaly": 339.192,
        "meta_ephemeris_type": 0,
        "meta_classification_type": "U",
        "meta_norad_cat_id": 66566,
        "meta_element_set_no": 999,
        "meta_rev_at_epoch": 553,
        "meta_bstar": 0.0012533683,
        "meta_mean_motion_dot": 0.00074062,
        "meta_mean_motion_ddot": 0,
        "tle_line1": "1 66566U 25268K   25352.58078349  .00074062  00000+0  12534-2 0  9998",
        "tle_line2": "2 66566  42.9993  86.9961 0000476  20.8960 339.1920 15.50645839  5534"
      },
      "geometry": {
        "type": "Point",
        "coordinates": [
          173.55057300388032,
          42.9736748478868
        ]
      }
    },
    {
      "type": "Feature",
      "properties": {
        "norad_id": 66567,
        "name": "STARLINK-35825",
        "group": "last-30-days",
        "lat": 42.96896876189209,
        "lon": 176.1752430709584,
        "alt_km": 408.56001697306056,
        "timestamp": "2025-12-18T23:35:47.780321+00:00",
        "meta_object_name": "STARLINK-35825",
        "meta_object_id": "2025-268L",
        "meta_epoch": "2025-12-18T13:55:49.510560",
        "meta_mean_motion": 15.50631534,
        "meta_eccentricity": 0.00010665,
        "meta_inclination": 42.9997,
        "meta_ra_of_asc_node": 86.9948,
        "meta_arg_of_pericenter": 261.3868,
        "meta_mean_anomaly": 98.6871,
        "meta_ephemeris_type": 0,
        "meta_classification_type": "U",
        "meta_norad_cat_id": 66567,
        "meta_element_set_no": 999,
        "meta_rev_at_epoch": 553,
        "meta_bstar": 0.0015117142,
        "meta_mean_motion_dot": 0.00089531,
        "meta_mean_motion_ddot": 0,
        "tle_line1": "1 66567U 25268L   25352.58043415  .00089531  00000+0  15117-2 0  9992",
        "tle_line2": "2 66567  42.9997  86.9948 0001066 261.3868  98.6871 15.50631534  5538"
      },
      "geometry": {
        "type": "Point",
        "coordinates": [
          176.1752430709584,
          42.96896876189209
        ]
      }
    },
    {
      "type": "Feature",
      "properties": {
        "norad_id": 66568,
        "name": "STARLINK-35803",
        "group": "last-30-days",
        "lat": 42.91398933457966,
        "lon": 178.55751246369317,
        "alt_km": 409.0027197490299,
        "timestamp": "2025-12-18T23:35:47.780333+00:00",
        "meta_object_name": "STARLINK-35803",
        "meta_object_id": "2025-268M",
        "meta_epoch": "2025-12-18T13:55:21.356256",
        "meta_mean_motion": 15.50582423,
        "meta_eccentricity": 0.00015584,
        "meta_inclination": 43.0015,
        "meta_ra_of_asc_node": 86.9919,
        "meta_arg_of_pericenter": 256.0458,
        "meta_mean_anomaly": 104.0229,
        "meta_ephemeris_type": 0,
        "meta_classification_type": "U",
        "meta_norad_cat_id": 66568,
        "meta_element_set_no": 999,
        "meta_rev_at_epoch": 553,
        "meta_bstar": 0.0016338255,
        "meta_mean_motion_dot": 0.00096711,
        "meta_mean_motion_ddot": 0,
        "tle_line1": "1 66568U 25268M   25352.58010829  .00096711  00000+0  16338-2 0  9990",
        "tle_line2": "2 66568  43.0015  86.9919 0001558 256.0458 104.0229 15.50582423  5533"
      },
      "geometry": {
        "type": "Point",
        "coordinates": [
          178.55751246369317,
          42.91398933457966
        ]
      }
    }
  ]
}